{
  "type": "FeatureCollection",
  "features": [
    {
      "type": "Feature",
      "properties": {
        "norad_id": 39766,
        "name": "ALOS-2",
        "group": "resource",
        "lat": -75.61013641479471,
        "lon": 106.65215316103665,
        "alt_km": 639.4033992053337,
        "timestamp": "2025-12-04T19:33:59.288414+00:00",
        "meta_object_name": "ALOS-2",
        "meta_object_id": "2014-029A",
        "meta_epoch": "2025-12-04T06:55:58.305792",
        "meta_mean_motion": 14.79459487,
        "meta_eccentricity": 0.00015195,
        "meta_inclination": 97.9237,
        "meta_ra_of_asc_node": 73.2557,
        "meta_arg_of_pericenter": 108.0155,
        "meta_mean_anomaly": 252.1222,
        "meta_ephemeris_type": 0,
        "meta_classification_type": "U",
        "meta_norad_cat_id": 39766,
        "meta_element_set_no": 999,
        "meta_rev_at_epoch": 62276,
        "meta_bstar": 0.00067429619,
        "meta_mean_motion_dot": 4.986e-05,
        "meta_mean_motion_ddot": 0,
        "tle_line1": "1 39766U 14029A   25338.28886928  .00004986  00000+0  67430-3 0  9998",
        "tle_line2": "2 39766  97.9237  73.2557 0001519 108.0155 252.1222 14.79459487622762"
      },
      "geometry": {
        "type": "Point",
        "coordinates": [
          106.65215316103665,
          -75.61013641479471
        ]
      }
    },
    {
      "type": "Feature",
      "properties": {
        "norad_id": 40010,
        "name": "KAZEOSAT 2",
        "group": "resource",
        "lat": 29.81332739045255,
        "lon": 179.17930957839204,
        "alt_km": 616.2201010102408,
        "timestamp": "2025-12-04T19:33:59.288423+00:00",
        "meta_object_name": "KAZEOSAT 2",
        "meta_object_id": "2014-033A",
        "meta_epoch": "2025-12-04T08:06:43.989696",
        "meta_mean_motion": 14.85147125,
        "meta_eccentricity": 0.00072715,
        "meta_inclination": 97.5511,
        "meta_ra_of_asc_node": 183.0861,
        "meta_arg_of_pericenter": 238.0473,
        "meta_mean_anomaly": 122.0036,
        "meta_ephemeris_type": 0,
        "meta_classification_type": "U",
        "meta_norad_cat_id": 40010,
        "meta_element_set_no": 999,
        "meta_rev_at_epoch": 62003,
        "meta_bstar": 0.00018133053,
        "meta_mean_motion_dot": 1.502e-05,
        "meta_mean_motion_ddot": 0,
        "tle_line1": "1 40010U 14033A   25338.33800914  .00001502  00000+0  18133-3 0  9991",
        "tle_line2": "2 40010  97.5511 183.0861 0007271 238.0473 122.0036 14.85147125620039"
      },
      "geometry": {
        "type": "Point",
        "coordinates": [
          179.17930957839204,
          29.81332739045255
        ]
      }
    },
    {
      "type": "Feature",
      "properties": {
        "norad_id": 40011,
        "name": "HODOYOSHI-4",
        "group": "resource",
        "lat": 51.64472170051501,
        "lon": 158.45229392278563,
        "alt_km": 616.9983435260947,
        "timestamp": "2025-12-04T19:33:59.288432+00:00",
        "meta_object_name": "HODOYOSHI-4",
        "meta_object_id": "2014-033B",
        "meta_epoch": "2025-12-04T08:01:46.758144",
        "meta_mean_motion": 14.87432741,
        "meta_eccentricity": 0.00227057,
        "meta_inclination": 97.5412,
        "meta_ra_of_asc_node": 167.6327,
        "meta_arg_of_pericenter": 229.4312,
        "meta_mean_anomaly": 130.4929,
        "meta_ephemeris_type": 0,
        "meta_classification_type": "U",
        "meta_norad_cat_id": 40011,
        "meta_element_set_no": 999,
        "meta_rev_at_epoch": 61983,
        "meta_bstar": 0.00047698607,
        "meta_mean_motion_dot": 4.286e-05,
        "meta_mean_motion_ddot": 0,
        "tle_line1": "1 40011U 14033B   25338.33456896  .00004286  00000+0  47699-3 0  9999",
        "tle_line2": "2 40011  97.5412 167.6327 0022705 229.4312 130.4929 14.87432741619833"
      },
      "geometry": {
        "type": "Point",
        "coordinates": [
          158.45229392278563,
          51.64472170051501
        ]
      }
    },
    {
      "type": "Feature",
      "properties": {
        "norad_id": 40013,
        "name": "DEIMOS-2",
        "group": "resource",
        "lat": 52.502751928668566,
        "lon": -155.15562076758056,
        "alt_km": 583.4712017458678,
        "timestamp": "2025-12-04T19:33:59.288441+00:00",
        "meta_object_name": "DEIMOS-2",
        "meta_object_id": "2014-033D",
        "meta_epoch": "2025-12-04T06:27:37.518336",
        "meta_mean_motion": 14.92912913,
        "meta_eccentricity": 8.588e-05,
        "meta_inclination": 97.6073,
        "meta_ra_of_asc_node": 214.3481,
        "meta_arg_of_pericenter": 89.4884,
        "meta_mean_anomaly": 270.6434,
        "meta_ephemeris_type": 0,
        "meta_classification_type": "U",
        "meta_norad_cat_id": 40013,
        "meta_element_set_no": 999,
        "meta_rev_at_epoch": 60863,
        "meta_bstar": 0.00055384871,
        "meta_mean_motion_dot": 5.692e-05,
        "meta_mean_motion_ddot": 0,
        "tle_line1": "1 40013U 14033D   25338.26918424  .00005692  00000+0  55385-3 0  9996",
        "tle_line2": "2 40013  97.6073 214.3481 0000858  89.4884 270.6434 14.92912913608637"
      },
      "geometry": {
        "type": "Point",
        "coordinates": [
          -155.15562076758056,
          52.502751928668566
        ]
      }
    },
    {
      "type": "Feature",
      "properties": {
        "norad_id": 40015,
        "name": "HODOYOSHI-3",
        "group": "resource",
        "lat": 53.3626602817758,
        "lon": 134.62508753364384,
        "alt_km": 626.0920888498413,
        "timestamp": "2025-12-04T19:33:59.288450+00:00",
        "meta_object_name": "HODOYOSHI-3",
        "meta_object_id": "2014-033F",
        "meta_epoch": "2025-12-04T04:45:59.649984",
        "meta_mean_motion": 14.84760634,
        "meta_eccentricity": 0.00318413,
        "meta_inclination": 97.6193,
        "meta_ra_of_asc_node": 144.4053,
        "meta_arg_of_pericenter": 277.2082,
        "meta_mean_anomaly": 82.5514,
        "meta_ephemeris_type": 0,
        "meta_classification_type": "U",
        "meta_norad_cat_id": 40015,
        "meta_element_set_no": 999,
        "meta_rev_at_epoch": 61868,
        "meta_bstar": 0.00044644205,
        "meta_mean_motion_dot": 3.768e-05,
        "meta_mean_motion_ddot": 0,
        "tle_line1": "1 40015U 14033F   25338.19860706  .00003768  00000+0  44644-3 0  9997",
        "tle_line2": "2 40015  97.6193 144.4053 0031841 277.2082  82.5514 14.84760634618680"
      },
      "geometry": {
        "type": "Point",
        "coordinates": [
          134.62508753364384,
          53.3626602817758
        ]
      }
    },
    {
      "type": "Feature",
      "properties": {
        "norad_id": 40053,
        "name": "SPOT 7",
        "group": "resource",
        "lat": 75.78223263588353,
        "lon": -104.7666645634923,
        "alt_km": 682.5976821351624,
        "timestamp": "2025-12-04T19:33:59.288459+00:00",
        "meta_object_name": "SPOT 7",
        "meta_object_id": "2014-034A",
        "meta_epoch": "2025-12-04T07:35:40.606944",
        "meta_mean_motion": 14.60717726,
        "meta_eccentricity": 0.00015246,
        "meta_inclination": 98.0918,
        "meta_ra_of_asc_node": 40.5857,
        "meta_arg_of_pericenter": 96.5151,
        "meta_mean_anomaly": 263.6223,
        "meta_ephemeris_type": 0,
        "meta_classification_type": "U",
        "meta_norad_cat_id": 40053,
        "meta_element_set_no": 999,
        "meta_rev_at_epoch": 60868,
        "meta_bstar": 0.00025844536,
        "meta_mean_motion_dot": 1.214e-05,
        "meta_mean_motion_ddot": 0,
        "tle_line1": "1 40053U 14034A   25338.31644221  .00001214  00000+0  25845-3 0  9992",
        "tle_line2": "2 40053  98.0918  40.5857 0001524  96.5151 263.6223 14.60717726608680"
      },
      "geometry": {
        "type": "Point",
        "coordinates": [
          -104.7666645634923,
          75.78223263588353
        ]
      }
    },
    {
      "type": "Feature",
      "properties": {
        "norad_id": 40072,
        "name": "SKYSAT-B",
        "group": "resource",
        "lat": -0.7786646957198647,
        "lon": -77.78201422416669,
        "alt_km": 613.351839277776,
        "timestamp": "2025-12-04T19:33:59.288468+00:00",
        "meta_object_name": "SKYSAT-B",
        "meta_object_id": "2014-037D",
        "meta_epoch": "2025-12-04T06:39:09.740448",
        "meta_mean_motion": 14.87278311,
        "meta_eccentricity": 0.00054642,
        "meta_inclination": 98.3596,
        "meta_ra_of_asc_node": 281.5372,
        "meta_arg_of_pericenter": 176.1694,
        "meta_mean_anomaly": 183.9563,
        "meta_ephemeris_type": 0,
        "meta_classification_type": "U",
        "meta_norad_cat_id": 40072,
        "meta_element_set_no": 999,
        "meta_rev_at_epoch": 61698,
        "meta_bstar": 0.00045252879,
        "meta_mean_motion_dot": 4.022e-05,
        "meta_mean_motion_ddot": 0,
        "tle_line1": "1 40072U 14037D   25338.27719607  .00004022  00000+0  45253-3 0  9997",
        "tle_line2": "2 40072  98.3596 281.5372 0005464 176.1694 183.9563 14.87278311616983"
      },
      "geometry": {
        "type": "Point",
        "coordinates": [
          -77.78201422416669,
          -0.7786646957198647
        ]
      }
    }
  ]
}